{"type": "FeatureCollection", "features": [ {"type": "Feature", "properties": {"norad_id": 37216, "name": "COSMO-SKYMED 4", "group": "resource", "lat": -12.1152197368157, "lon": -21.281756182671863, "alt_km": 627.3108755632729, "timestamp": "2025-12-04T23:34:05.387434+00:00", "meta": {"OBJECT_NAME": "COSMO-SKYMED 4", "OBJECT_ID": "2010-060A", "EPOCH": "2025-12-04T19:27:49.322592", "MEAN_MOTION": 14.82153432, "ECCENTRICITY": 0.0001382, "INCLINATION": 97.8808, "RA_OF_ASC_NODE": 160.2537, "ARG_OF_PERICENTER": 83.3517, "MEAN_ANOMALY": 276.7853, "EPHEMERIS_TYPE": 0, "CLASSIFICATION_TYPE": "U", "NORAD_CAT_ID": 37216, "ELEMENT_SET_NO": 999, "REV_AT_EPOCH": 81577, "BSTAR": 0.00013932, "MEAN_MOTION_DOT": 1.057e-05, "MEAN_MOTION_DDOT": 0}, "tle": {"line1": "1 37216U 10060A   25338.81098753  .00001057  00000+0  13932-3 0  9991", "line2": "2 37216  97.8808 160.2537 0001382  83.3517 276.7853 14.82153432815775"}}, "geometry": {"type": "Point", "coordinates": [-21.281756182671863, -12.1152197368157]}}, {"type": "Feature", "properties": {"norad_id": 37387, "name": "RESOURCESAT-2", "group": "resource", "lat": 44.827337558686686, "lon": 33.722432285729596, "alt_km": 811.4503617179798, "timestamp": "2025-12-04T23:34:05.387444+00:00", "meta": {"OBJECT_NAME": "RESOURCESAT-2", "OBJECT_ID": "2011-015A", "EPOCH": "2025-12-04T16:35:53.673216", "MEAN_MOTION": 14.21592362, "ECCENTRICITY": 0.0006743, "INCLINATION": 98.7888, "RA_OF_ASC_NODE": 42.2792, "ARG_OF_PERICENTER": 63.3802, "MEAN_ANOMALY": 296.8065, "EPHEMERIS_TYPE": 0, "CLASSIFICATION_TYPE": "U", "NORAD_CAT_ID": 37387, "ELEMENT_SET_NO": 999, "REV_AT_EPOCH": 75854, "BSTAR": 0.00017567, "MEAN_MOTION_DOT": 3.41e-06, "MEAN_MOTION_DDOT": 0}, "tle": {"line1": "1 37387U 11015A   25338.69159344  .00000341  00000+0  17567-3 0  9994", "line2": "2 37387  98.7888  42.2792 0006743  63.3802 296.8065 14.21592362758546"}}, "geometry": {"type": "Point", "coordinates": [33.722432285729596, 44.827337558686686]}}, {"type": "Feature", "properties": {"norad_id": 37781, "name": "HAIYANG-2A", "group": "resource", "lat": -25.53739549289073, "lon": 155.52741860861778, "alt_km": 973.963935879141, "timestamp": "2025-12-04T23:34:05.387455+00:00", "meta": {"OBJECT_NAME": "HAIYANG-2A", "OBJECT_ID": "2011-043A", "EPOCH": "2025-12-04T19:05:25.013760", "MEAN_MOTION": 13.78834407, "ECCENTRICITY": 0.0001647, "INCLINATION": 99.3377, "RA_OF_ASC_NODE": 339.8524, "ARG_OF_PERICENTER": 95.3097, "MEAN_ANOMALY": 264.8242, "EPHEMERIS_TYPE": 0, "CLASSIFICATION_TYPE": "U", "NORAD_CAT_ID": 37781, "ELEMENT_SET_NO": 999, "REV_AT_EPOCH": 71989, "BSTAR": 6.6817e-05, "MEAN_MOTION_DOT": 2.4e-07, "MEAN_MOTION_DDOT": 0}, "tle": {"line1": "1 37781U 11043A   25338.79542840  .00000024  00000+0  66817-4 0  9992", "line2": "2 37781  99.3377 339.8524 0001647  95.3097 264.8242 13.78834407719898"}}, "geometry": {"type": "Point", "coordinates": [155.52741860861778, -25.53739549289073]}}, {"type": "Feature", "properties": {"norad_id": 37791, "name": "RASAT", "group": "resource", "lat": -1.2217629679285391, "lon": 68.52820913610537, "alt_km": 670.7833643568965, "timestamp": "2025-12-04T23:34:05.387465+00:00", "meta": {"OBJECT_NAME": "RASAT", "OBJECT_ID": "2011-044D", "EPOCH": "2025-12-04T19:10:36.688800", "MEAN_MOTION": 14.67892259, "ECCENTRICITY": 0.0021949, "INCLINATION": 98.0655, "RA_OF_ASC_NODE": 68.1747, "ARG_OF_PERICENTER": 88.9325, "MEAN_ANOMALY": 23.891, "EPHEMERIS_TYPE": 0, "CLASSIFICATION_TYPE": "U", "NORAD_CAT_ID": 37791, "ELEMENT_SET_NO": 999, "REV_AT_EPOCH": 76466, "BSTAR": 0.00022629, "MEAN_MOTION_DOT": 1.249e-05, "MEAN_MOTION_DDOT": 0}, "tle": {"line1": "1 37791U 11044D   25338.79903575  .00001249  00000+0  22629-3 0  9992", "line2": "2 37791  98.0655  68.1747 0021949  88.9325  23.8910 14.67892259764660"}}, "geometry": {"type": "Point", "coordinates": [68.52820913610537, -1.2217629679285391]}}, {"type": "Feature", "properties": {"norad_id": 37841, "name": "SRMSAT", "group": "resource", "lat": 3.8525273078057536, "lon": -35.780586290512844, "alt_km": 846.9761641924179, "timestamp": "2025-12-04T23:34:05.387475+00:00", "meta": {"OBJECT_NAME": "SRMSAT", "OBJECT_ID": "2011-058D", "EPOCH": "2025-12-04T16:21:06.385824", "MEAN_MOTION": 14.11507205, "ECCENTRICITY": 0.0011717, "INCLINATION": 19.9698, "RA_OF_ASC_NODE": 156.7245, "ARG_OF_PERICENTER": 224.0627, "MEAN_ANOMALY": 213.4569, "EPHEMERIS_TYPE": 0, "CLASSIFICATION_TYPE": "U", "NORAD_CAT_ID": 37841, "ELEMENT_SET_NO": 999, "REV_AT_EPOCH": 73030, "BSTAR": 0.00015376, "MEAN_MOTION_DOT": 5.48e-06, "MEAN_MOTION_DDOT": 0}, "tle": {"line1": "1 37841U 11058D   25338.68132391  .00000548  00000+0  15376-3 0  9993", "line2": "2 37841  19.9698 156.7245 0011717 224.0627 213.4569 14.11507205730306"}}, "geometry": {"type": "Point", "coordinates": [-35.780586290512844, 3.8525273078057536]}}, {"type": "Feature", "properties": {"norad_id": 38012, "name": "PLEIADES 1A", "group": "resource", "lat": 53.94433339337344, "lon": 40.47001807723814, "alt_km": 691.8721049699698, "timestamp": "2025-12-04T23:34:05.387511+00:00", "meta": {"OBJECT_NAME": "PLEIADES 1A", "OBJECT_ID": "2011-076F", "EPOCH": "2025-12-04T18:53:35.699136", "MEAN_MOTION": 14.58549857, "ECCENTRICITY": 0.0001391, "INCLINATION": 98.1833, "RA_OF_ASC_NODE": 51.6782, "ARG_OF_PERICENTER": 80.509, "MEAN_ANOMALY": 32.1411, "EPHEMERIS_TYPE": 0, "CLASSIFICATION_TYPE": "U", "NORAD_CAT_ID": 38012, "ELEMENT_SET_NO": 999, "REV_AT_EPOCH": 74365, "BSTAR": 0.00020023, "MEAN_MOTION_DOT": 8.85e-06, "MEAN_MOTION_DDOT": 0}, "tle": {"line1": "1 38012U 11076F   25338.78721874  .00000885  00000+0  20023-3 0  9994", "line2": "2 38012  98.1833  51.6782 0001391  80.5090  32.1411 14.58549857743656"}}, "geometry": {"type": "Point", "coordinates": [40.47001807723814, 53.94433339337344]}}, {"type": "Feature", "properties": {"norad_id": 38038, "name": "ZIYUAN 1-02C (ZY 1-02C)", "group": "resource", "lat": 4.213813818635553, "lon": -134.23515641823337, "alt_km": 762.7928677514292, "timestamp": "2025-12-04T23:34:05.387535+00:00", "meta": {"OBJECT_NAME": "ZIYUAN 1-02C (ZY 1-02C)", "OBJECT_ID": "2011-079A", "EPOCH": "2025-12-04T18:26:04.006752", "MEAN_MOTION": 14.37998695, "ECCENTRICITY": 0.0006841, "INCLINATION": 98.4345, "RA_OF_ASC_NODE": 44.9285, "ARG_OF_PERICENTER": 160.5591, "MEAN_ANOMALY": 348.3398, "EPHEMERIS_TYPE": 0, "CLASSIFICATION_TYPE": "U", "NORAD_CAT_ID": 38038, "ELEMENT_SET_NO": 999, "REV_AT_EPOCH": 73126, "BSTAR": 0.00035004, "MEAN_MOTION_DOT": 1.016e-05, "MEAN_MOTION_DDOT": 0}, "tle": {"line1": "1 38038U 11079A   25338.76810193  .00001016  00000+0  35004-3 0  9998", "line2": "2 38038  98.4345  44.9285 0006841 160.5591 348.3398 14.37998695731263"}}, "geometry": {"type": "Point", "coordinates": [-134.23515641823337, 4.213813818635553]}}, {"type": "Feature", "properties": {"norad_id": 38046, "name": "ZIYUAN 3-1 (ZY 3-1)", "group": "resource", "lat": -48.18526716370643, "lon": 53.324876069588456, "alt_km": 373.6164550403146, "timestamp": "2025-12-04T23:34:05.387547+00:00", "meta": {"OBJECT_NAME": "ZIYUAN 3-1 (ZY 3-1)", "OBJECT_ID": "2012-001A", "EPOCH": "2025-12-04T17:38:43.795968", "MEAN_MOTION": 15.67074659, "ECCENTRICITY": 0.0002143, "INCLINATION": 97.1774, "RA_OF_ASC_NODE": 44.9744, "ARG_OF_PERICENTER": 25.8324, "MEAN_ANOMALY": 334.3044, "EPHEMERIS_TYPE": 0, "CLASSIFICATION_TYPE": "U", "NORAD_CAT_ID": 38046, "ELEMENT_SET_NO": 999, "REV_AT_EPOCH": 77371, "BSTAR": 0.0010925, "MEAN_MOTION_DOT": 0.00117689, "MEAN_MOTION_DDOT": 0}, "tle": {"line1": "1 38046U 12001A   25338.73522912  .00117689  00000+0  10925-2 0  9997", "line2": "2 38046  97.1774  44.9744 0002143  25.8324 334.3044 15.67074659773710"}}, "geometry": {"type": "Point", "coordinates": [53.324876069588456, -48.18526716370643]}}, {"type": "Feature", "properties": {"norad_id": 38338, "name": "ARIRANG-3 (KOMPSAT-3)", "group": "resource", "lat": -43.784264859444995, "lon": 105.43992777633964, "alt_km": 697.5400036257233, "timestamp": "2025-12-04T23:34:05.387558+00:00", "meta": {"OBJECT_NAME": "ARIRANG-3 (KOMPSAT-3)", "OBJECT_ID": "2012-025B", "EPOCH": "2025-12-04T19:15:33.098688", "MEAN_MOTION": 14.61696225, "ECCENTRICITY": 0.0005926, "INCLINATION": 98.331, "RA_OF_ASC_NODE": 293.3326, "ARG_OF_PERICENTER": 3.9918, "MEAN_ANOMALY": 356.1328, "EPHEMERIS_TYPE": 0, "CLASSIFICATION_TYPE": "U", "NORAD_CAT_ID": 38338, "ELEMENT_SET_NO": 999, "REV_AT_EPOCH": 72294, "BSTAR": 0.00024338, "MEAN_MOTION_DOT": 1.164e-05, "MEAN_MOTION_DDOT": 0}, "tle": {"line1": "1 38338U 12025B   25338.80246642  .00001164  00000+0  24338-3 0  9992", "line2": "2 38338  98.3310 293.3326 0005926   3.9918 356.1328 14.61696225722945"}}, "geometry": {"type": "Point", "coordinates": [105.43992777633964, -43.784264859444995]}}, {"type": "Feature", "properties": {"norad_id": 38709, "name": "EXACTVIEW-1 (ADS-1B)", "group": "resource", "lat": 11.648616654683222, "lon": -90.92598789240249, "alt_km": 817.1284487912862, "timestamp": "2025-12-04T23:34:05.387569+00:00", "meta": {"OBJECT_NAME": "EXACTVIEW-1 (ADS-1B)", "OBJECT_ID": "2012-039C", "EPOCH": "2025-12-04T14:21:21.311712", "MEAN_MOTION": 14.24902764, "ECCENTRICITY": 0.0011098, "INCLINATION": 98.9636, "RA_OF_ASC_NODE": 86.8176, "ARG_OF_PERICENTER": 17.3472, "MEAN_ANOMALY": 342.8083, "EPHEMERIS_TYPE": 0, "CLASSIFICATION_TYPE": "U", "NORAD_CAT_ID": 38709, "ELEMENT_SET_NO": 999, "REV_AT_EPOCH": 69499, "BSTAR": 0.0001602, "MEAN_MOTION_DOT": 3.28e-06, "MEAN_MOTION_DDOT": 0}, "tle": {"line1": "1 38709U 12039C   25338.59816333  .00000328  00000+0  16020-3 0  9995", "line2": "2 38709  98.9636  86.8176 0011098  17.3472 342.8083 14.24902764694993"}}, "geometry": {"type": "Point", "coordinates": [-90.92598789240249, 11.648616654683222]}}]}